[{"OBJECT_NAME":"STARLINK-3806","OBJECT_ID":"2022-045AZ","EPOCH":"2026-03-09T14:31:29.590176","MEAN_MOTION":15.08842574,"ECCENTRICITY":0.0001285,"INCLINATION":53.2176,"RA_OF_ASC_NODE":189.5022,"ARG_OF_PERICENTER":90.0541,"MEAN_ANOMALY":270.0598,"EPHEMERIS_TYPE":0,"CLASSIFICATION_TYPE":"U","NORAD_CAT_ID":52378,"ELEMENT_SET_NO":999,"REV_AT_EPOCH":21591,"BSTAR":2.3998e-5,"MEAN_MOTION_DOT":9.4e-7,"MEAN_MOTION_DDOT":0},{"OBJECT_NAME":"FENGYUN 1C DEB","OBJECT_ID":"1999-025AKL","EPOCH":"2026-03-09T14:47:46.011264","MEAN_MOTION":14.88806868,"ECCENTRICITY":0.0088849,"INCLINATION":98.9015,"RA_OF_ASC_NODE":300.2677,"ARG_OF_PERICENTER":245.5096,"MEAN_ANOMALY":169.9787,"EPHEMERIS_TYPE":0,"CLASSIFICATION_TYPE":"U","NORAD_CAT_ID":30546,"ELEMENT_SET_NO":999,"REV_AT_EPOCH":1749,"BSTAR":0.00087367,"MEAN_MOTION_DOT":8.737e-5,"MEAN_MOTION_DDOT":0}]
